IRIDIUM 33 DEB          
1 39777U 97051AAJ 26071.59831209  .00011849  00000+0  24599-2 0  9991
2 39777  85.9613 131.3580 0057280 239.5470 120.0074 14.59023573614947
IRIDIUM 33 DEB          
1 39778U 97051AAK 26073.53748459  .00005216  00000+0  12020-2 0  9999
2 39778  86.3823   3.3509 0009969  76.1092 284.1224 14.55161126620276
IRIDIUM 33 DEB          
1 40996U 97051ABJ 26066.45985131  .00063892  00000+0  45408-2 0  9996
2 40996  86.3480 321.5871 0010571  86.7515  38.3180 15.04355632637588
IRIDIUM 33 DEB          
1 40998U 97051ABL 26072.13464501  .00002190  00000+0  61598-3 0  9996
2 40998  86.3865  15.0230 0008982 125.1157 293.5166 14.45480435 79879
IRIDIUM 33 DEB          
1 46965U 97051ABX 26072.38842684  .00002864  00000+0  57712-3 0  9996
2 46965  86.3332 300.4831 0020163  23.4027 100.3330 14.61080667635919
IRIDIUM 33 DEB          
1 46971U 97051ACD 26046.17100049  .00032805  00000+0  24317-2 0  9995
2 46971  86.3384 302.6959 0018324 121.5358  29.3036 15.02823090651968
IRIDIUM 33 DEB          
1 46972U 97051ACE 26044.68140226  .00002565  00000+0  64340-3 0  9992
2 46972  86.3900  12.2992 0007091 258.5659 223.6549 14.51029384624851
IRIDIUM 33 DEB          
1 46974U 97051ACG 26050.81448888  .00008465  00000+0  22535-2 0  9995
2 46974  86.2960  75.0684 0088187 318.5740  40.8797 14.46114347585067
